#dP2021 11 20  0  0  0.00000000      97 __u+U IGS14 FIT  IAC
## 2184 518400.00000000   900.00000000 59538 0.0000000000000
+  122   C01C02C03C04C05C06C07C08C09C10C11C12C13C14C16C19C20
+        C21C22C23C24C25C26C27C28C29C30C32C33C34C35C36C37C38
+        C39C40C41C42C43C44C45C46C59E01E02E03E04E05E07E08E09
+        E11E12E13E14E15E18E19E21E24E25E27E30E31E33E36G01G02
+        G03G04G05G06G07G08G09G10G12G13G14G15G16G17G18G19G20
+        G21G22G23G24G25G26G27G28G29G30G31G32J01J02J03J07R01
+        R02R03R04R05R07R08R09R11R12R13R14R15R16R17R18R19R20
+        R21R22R24  0  0  0  0  0  0  0  0  0  0  0  0  0  0
++         0  0  0  0  0  0  0  0  0  0  0  0  0  0  0  0  0
++         0  0  0  0  0  0  0  0  0  0  0  0  0  0  0  0  0
++         0  0  0  0  0  0  0  0  0  0  0  0  0  0  0  0  0
++         0  0  0  0  0  0  0  0  0  0  0  0  0  0  0  0  0
++         0  0  0  0  0  0  0  0  0  0  0  0  0  0  0  0  0
++         0  0  0  0  0  0  0  0  0  0  0  0  0  0  0  0  0
++         0  0  0  0  0  0  0  0  0  0  0  0  0  0  0  0  0
++         0  0  0  0  0  0  0  0  0  0  0  0  0  0  0  0  0
%c M  cc GPS ccc cccc cccc cccc cccc ccccc ccccc ccccc ccccc
%c cc cc ccc ccc cccc cccc cccc cccc ccccc ccccc ccccc ccccc
%f  1.2500000  1.025000000  0.00000000000  0.000000000000000
%f  0.0000000  0.000000000  0.00000000000  0.000000000000000
%i    0    0    0    0      0      0      0      0         0
%i    0    0    0    0      0      0      0      0         0
/* INFORMATION & ANALYSIS CENTER (IAC)            FINAL DATA
/* S/V CLOCKS ARE ALIGNED TO GNSS TIME                      
/* G:C1WC2W R:C1PC2P E:C1XC5X C:C2IC6I J:C1CC2S             
/* PCV:IGS14_2178 OL/AL:FES2004  NONE     YN ORB:CoN CLK:CoN
*  2021 11 20 11 15  0.00000000
PC01 -34355.326330  24492.395284   -180.879456   -428.397442
PC02   4450.769275  41892.465867   -800.095476    143.063977
PC03 -14740.176395  39488.524097  -1103.197346    207.324540
PC04 -39672.401800  14374.464237   -145.511781    201.291930
PC05      0.000000      0.000000      0.000000 999999.999999
PC06 -16802.230271  35948.615126  13976.746378    514.781278
PC07  -3108.897828  35561.528276  22548.690709    216.157333
PC08  -8515.991804  19878.785985 -36205.791300   -753.597958
PC09 -11272.064263  34722.741127  20995.832752   -282.215532
PC10   4045.526671  38798.364070  16841.341515     13.132256
PC11   5243.193930 -21929.772523  16483.721868    701.539371
PC12  18364.005801 -20993.669237    201.114061    721.924214
PC13  -2195.466742  22284.077961 -35606.832798    481.039509
PC14  -4628.631291 -26677.341650   6661.520616    527.839499
PC16 -20361.956729  35549.326292   9566.234991   -715.376619
PC19  11187.320432  25413.837813   2855.958687    932.912513
PC20  -1210.312479  24375.834182 -13546.682690   -790.952963
PC21  13648.447936  -8577.764756  22784.915991   -938.329203
PC22  17542.298947  11825.242397  18200.742341   -971.251996
PC23 -26581.033739  -7720.544107  -3586.595435   -964.625065
PC24   8044.164432 -14728.770286 -22299.045888   -959.311644
PC25 -14495.073888 -15528.582834 -18115.535015   -821.952870
PC26  23432.516955  -6122.482583 -13838.532722    819.173923
PC27 -21575.033067  15452.918257   8596.746013    632.442721
PC28 -18151.019937  -1530.527149  21149.626123     -0.504036
PC29   4680.828155  17516.113148 -21216.609890    476.806492
PC30 -11972.279378  23778.452252  -8338.848788    486.738550
PC32 -13615.521770   8626.442680 -22774.366485   -960.664176
PC33 -11265.171639 -25377.870150  -2744.540421   -970.038235
PC34  11355.541398 -23812.717663   9121.425049   -532.726734
PC35  18002.698042   1418.911877 -21284.993087      9.286983
PC36  13642.502699  15965.893599  18397.074751   -808.852737
PC37 -24212.976272   4885.522749  13027.274587   -894.761065
PC38 -18670.366285  19525.910155 -32408.478352    190.825255
PC39 -22012.993279  35668.565595   3716.801821     34.073236
PC40  -6954.004034  31548.177318  27182.594535    219.384113
PC41 -17569.046032 -12158.557293 -17914.539854   -915.752811
PC42   1926.863035 -23912.969354  14280.728275   -941.373861
PC43  -4129.608765 -18022.286062  20903.978296   -959.543802
PC44  21127.772906 -16009.842159  -8772.716235    471.925115
PC45  26630.690253   7552.465999   3421.517017    605.782923
PC46  -6670.571862  15006.094777  22570.904078    -18.213557
PC59      0.000000      0.000000      0.000000 999999.999999
PE01  -3752.849649 -20991.763521 -20527.532820   -521.040557
PE02   3870.377796  21030.238680  20462.632344    261.540122
PE03  -3201.269891  29361.937943   2023.586576   -497.933090
PE04  -9751.183023 -21137.341210 -18287.828549   -903.612357
PE05 -14500.261185  20474.204565 -15712.983645   -232.548519
PE07  17212.826195    220.314527  24076.044059   -609.044653
PE08   9949.718886  20760.694045  18603.006913   5901.998369
PE09 -17103.514708    134.681339 -24164.208369   5457.279935
PE11 -27392.112723   3177.422733  10748.593237   5048.449134
PE12 -14050.222192 -11020.953970  23609.024439   4900.721599
PE13  27209.273292  -2873.226966 -11281.988286    423.884635
PE14 -12568.688443  -8664.982889  17968.554328  -1646.740148
PE15  13980.241082  10949.647087 -23670.478943    779.894226
PE18  15674.761133  14698.365642 -24251.434594  -1810.256989
PE19   4880.150018 -29196.526283    311.074830    432.217366
PE21  14137.844295  -9590.760087 -24167.390422   -700.634337
PE24 -24989.915910  -8946.704430  13123.486222  -1236.383376
PE25 -14351.880950   9390.117164  24136.910936   -554.188764
PE27  24814.674290   7904.805405 -14047.069605   -169.028716
PE30  20011.303240  21124.202479   5373.289291    -45.136346
PE31 -20829.967682 -20605.280218  -4230.456192   -488.311394
PE33   7432.627646 -18273.773755  22075.783382   -462.342874
PE36 -24382.605848  14930.046823  -7663.620126   -292.709235
PG01   4496.712163  14144.768594 -22312.641352    505.746231
PG02  17557.100956 -15123.219131  13723.574782   -642.741649
PG03  10894.484343  22177.569593  -9984.266025    -18.310225
PG04   1516.581770  22986.873962  13155.079700   -201.398815
PG05   2176.606261 -17495.949565  19652.010656    -61.697312
PG06  25984.067602  -5653.253355    208.561680    122.418804
PG07  20064.949102   7680.642291  16299.445261    280.575286
PG08  -5862.675095  25599.266003  -2528.404360    -44.903198
PG09  10483.699897  14073.507327  19854.051931   -361.562180
PG10 -20693.859640  -7578.144726 -14910.290875   -250.301002
PG12  -7917.193710 -22803.894062 -11484.094436   -129.047114
PG13  13180.795282 -22732.068162   3093.323666    217.378685
PG14  20469.750310   8068.245135 -14919.519796    -41.574564
PG15   2391.335667 -26097.492879  -3418.533112   -105.105741
PG16  -6615.506884  14740.780044  20732.381095   -427.280787
PG17  15357.342401   -205.785206 -21233.780649    536.303255
PG18 -20619.423362  -6735.987615  15388.410278    292.702383
PG19  17340.663458  -8826.780308 -18262.340291     81.687635
PG20  11697.040488 -10552.785856  21347.405657    518.030413
PG21  -5014.304297  15976.202883 -19788.559919    151.545632
PG22   5047.373032  20421.644223 -16166.329752   -460.408975
PG23 -20459.030449 -16211.937247  -5168.889217     30.838174
PG24   -318.903250 -16252.009304 -21236.300518    268.832314
PG25 -16874.233151 -20627.548444  -2092.144128    243.471255
PG26 -17027.098402   3697.879014  20055.993662    157.179571
PG27 -12269.144936  22121.449320   7245.501250   -221.443304
PG28  17623.403922   1615.875401 -19197.871390    459.163076
PG29  -6058.907759 -17964.236285  18532.265736   -443.144651
PG30  25666.577052    529.217140   7344.027613   -492.902727
PG31 -25879.333220   6600.140309   2328.103896   -151.083289
PG32 -16387.414050   4713.918576 -20201.708922    -24.356692
PJ01 -21400.751458  26615.769750 -20183.757978    128.747956
PJ02 -25788.203430  21958.089234  30118.418280     -0.145334
PJ03 -34358.044012  24476.282627   5109.193948     -6.795719
PJ07 -25405.231875  33655.019273    -12.508200      1.335796
PR01   2166.610382  24981.196361  -4713.305156     88.376194
PR02   9831.535554  18204.817272  14906.569577    500.695978
PR03  11152.366046    653.895412  22963.294487     46.772293
PR04   6031.052060 -16896.303755  18158.816178    115.102551
PR05  -2235.154062 -25214.496548   3272.162477     82.787658
PR07 -11048.062232    -22.278585 -22963.550724    -39.833598
PR08  -6027.853127  16968.135297 -18005.887650    -62.122667
PR09 -20984.179861 -11939.724223  -8106.389581     24.555612
PR11 -12894.160374   5931.061555  21203.600507     49.026843
PR12   6001.186337  13043.145801  21105.032451    279.955192
PR13  20496.828594  12158.274325   9077.120136    -63.776785
PR14  23402.417591   4012.588162  -9324.922841     71.218318
PR15  12401.934418  -6211.080679 -21385.681509    100.082701
PR16  -7726.079995 -13257.989800 -20438.680932    -25.336066
PR17  19838.781375  -7686.751142 -14022.474925    476.549054
PR18  19340.477274 -16516.899630   2260.004496     97.812905
PR19   9868.802117 -16595.985450  16667.453751   -167.688227
PR20  -8504.976100  -6476.526153  23169.873003    -59.694135
PR21 -20261.799881   8615.499555  12914.800144   -256.023531
PR22 -19016.789611  16620.238731  -3235.377692   -146.364434
PR24   9520.079294   6139.914116 -22830.502477     67.741395
EOF
